NORAD_CAT_ID,OBJECT_NAME,OBJECT_TYPE,EPOCH,MEAN_MOTION,ECCENTRICITY,INCLINATION,RA_OF_ASC_NODE,ARG_OF_PERICENTER,MEAN_ANOMALY,BSTAR,MEAN_MOTION_DOT,MEAN_MOTION_DDOT,TLE_LINE0,TLE_LINE1,TLE_LINE2,SEMIMAJOR_AXIS,PERIOD,APOGEE,PERIGEE,DECAYED
49457.0,STARLINK-3132,PAYLOAD,2022-11-01 01:51:29,15.08818451,0.0002056,53.2179,316.6366,46.1512,313.9649,0.00029407,4.392e-05,0.0,0 STARLINK-3132,1 49457U 21104BB  22305.07742954  .00004392  00000-0  29407-3 0  9990,2 49457  53.2179 316.6366 0002056  46.1512 313.9649 15.08818451 54972,6917.946,95.439,541.234,538.389,0.0
49457.0,STARLINK-3132,PAYLOAD,2022-11-01 06:37:39,15.08836216,0.0001964,53.218,315.7447,46.6937,313.4219,8.949799999999999e-05,1.136e-05,0.0,0 STARLINK-3132,1 49457U 21104BB  22305.27614696  .00001136  00000-0  89498-4 0  9993,2 49457  53.2180 315.7447 0001964  46.6937 313.4219 15.08836216 55009,6917.892,95.438,541.116,538.398,0.0
49457.0,STARLINK-3132,PAYLOAD,2022-11-01 08:13:02,15.08832263,0.0002056999999999,53.2174,315.447,41.8433,318.2716,9.744e-05,1.263e-05,0.0,0 STARLINK-3132,1 49457U 21104BB  22305.34238964  .00001263  00000-0  97440-4 0  9998,2 49457  53.2174 315.4470 0002057  41.8433 318.2716 15.08832263 53941,6917.904,95.438,541.192,538.346,0.0
49457.0,STARLINK-3132,PAYLOAD,2022-11-01 17:45:21,15.08830368,0.0002429,53.2167,313.6628,34.2749,325.8399,1.3805e-05,-6.9e-07,0.0,0 STARLINK-3132,1 49457U 21104BB  22305.73983578 -.00000069  00000-0  13805-4 0  9996,2 49457  53.2167 313.6628 0002429  34.2749 325.8399 15.08830368 55078,6917.91,95.438,541.455,538.094,0.0
49457.0,STARLINK-3132,PAYLOAD,2022-11-02 01:42:16,15.08838831,0.0002391,53.215,312.1732,26.1347,333.9766,7.151e-05,8.5e-06,0.0,0 STARLINK-3132,1 49457U 21104BB  22306.07102863  .00000850  00000-0  71510-4 0  9998,2 49457  53.2150 312.1732 0002391  26.1347 333.9766 15.08838831 55129,6917.884,95.438,541.403,538.095,0.0
49457.0,STARLINK-3132,PAYLOAD,2022-11-02 09:39:12,15.08838562,0.0002348,53.2164,310.6867,34.7945,325.32,0.00011218,1.497e-05,0.0,0 STARLINK-3132,1 49457U 21104BB  22306.40222926  .00001497  00000-0  11218-3 0  9994,2 49457  53.2164 310.6867 0002348  34.7945 325.3200 15.08838562 54103,6917.885,95.438,541.374,538.125,0.0
49457.0,STARLINK-3132,PAYLOAD,2022-11-02 17:36:08,15.08833361,0.0002515,53.2161,309.2001,31.8681,328.2463,6.7252e-06,-1.81e-06,0.0,0 STARLINK-3132,1 49457U 21104BB  22306.73343652 -.00000181  00000-0  67252-5 0  9991,2 49457  53.2161 309.2001 0002515  31.8681 328.2463 15.08833361 55224,6917.901,95.438,541.506,538.026,0.0
49457.0,STARLINK-3132,PAYLOAD,2022-11-03 09:29:59,15.08841109,0.0002368,53.2156,306.2266,35.549,324.566,8.442299999999999e-05,1.056e-05,0.0,0 STARLINK-3132,1 49457U 21104BB  22307.39583202  .00001056  00000-0  84423-4 0  9990,2 49457  53.2156 306.2266 0002368  35.5490 324.5660 15.08841109 55321,6917.877,95.437,541.38,538.104,0.0
49457.0,STARLINK-3132,PAYLOAD,2022-11-04 09:20:45,15.08856892,0.0002249,53.2163,301.7675,33.9954,326.1182,0.00026781,3.979e-05,0.0,0 STARLINK-3132,1 49457U 21104BB  22308.38941981  .00003979  00000-0  26781-3 0  9990,2 49457  53.2163 301.7675 0002249  33.9954 326.1182 15.08856892 55476,6917.829000000002,95.436,541.25,538.138,0.0
49457.0,STARLINK-3132,PAYLOAD,2022-11-04 17:17:42,15.08842568,0.000217,53.2151,300.2789,36.3065,323.8074,0.0001324,1.82e-05,0.0,0 STARLINK-3132,1 49457U 21104BB  22308.72062575  .00001820  00000-0  13240-3 0  9990,2 49457  53.2151 300.2789 0002170  36.3065 323.8074 15.08842568 55521,6917.873000000001,95.437,541.239,538.236,0.0
49457.0,STARLINK-3132,PAYLOAD,2022-11-05 09:11:34,15.08831541,0.0002582,53.217,297.308,30.0836,330.0304,-2.215e-05,-6.41e-06,0.0,0 STARLINK-3132,1 49457U 21104BB  22309.38303501 -.00000641  00000-0 -22150-4 0  9993,2 49457  53.2170 297.3080 0002582  30.0836 330.0304 15.08831541 54553,6917.906,95.438,541.557,537.985,0.0
49457.0,STARLINK-3132,PAYLOAD,2022-11-06 09:02:21,15.08835614,0.0002339,53.217,292.8455,38.1325,321.9833,-8.766e-05,-1.683e-05,0.0,0 STARLINK-3132,1 49457U 21104BB  22310.37663917 -.00001683  00000-0 -87660-4 0  9998,2 49457  53.2170 292.8455 0002339  38.1325 321.9833 15.08835614 54709,6917.894,95.438,541.377,538.141,0.0
49457.0,STARLINK-3132,PAYLOAD,2022-11-06 15:23:54,15.088343900000002,0.0002431,53.2173,291.6552,38.5737,321.5429,-8.185399999999999e-05,-1.591e-05,0.0,0 STARLINK-3132,1 49457U 21104BB  22310.64160124 -.00001591  00000-0 -81854-4 0  9997,2 49457  53.2173 291.6552 0002431  38.5737 321.5429 15.08834390 55811,6917.898,95.438,541.444,538.081,0.0
49457.0,STARLINK-3132,PAYLOAD,2022-11-07 02:31:35,15.088387300000004,0.0002279,53.2168,289.574,35.3247,324.7896,0.00011159,1.488e-05,0.0,0 STARLINK-3132,1 49457U 21104BB  22311.10527435  .00001488  00000-0  11159-3 0  9994,2 49457  53.2168 289.5740 0002279  35.3247 324.7896 15.08838730 55883,6917.884,95.438,541.326,538.173,0.0
49457.0,STARLINK-3132,PAYLOAD,2022-11-07 05:42:22,15.088340099999998,0.0002377,53.2156,288.9798,33.6708,326.4435,0.00022751,3.334e-05,0.0,0 STARLINK-3132,1 49457U 21104BB  22311.23776101  .00003334  00000-0  22751-3 0  9996,2 49457  53.2156 288.9798 0002377  33.6708 326.4435 15.08834010 55906,6917.899,95.438,541.408,538.119,0.0
49457.0,STARLINK-3132,PAYLOAD,2022-11-07 15:14:41,15.08833137,0.0002353,53.2156,287.1956,35.1326,324.9821,0.00025202,3.724e-05,0.0,0 STARLINK-3132,1 49457U 21104BB  22311.63520438  .00003724  00000-0  25202-3 0  9997,2 49457  53.2156 287.1956 0002353  35.1326 324.9821 15.08833137 54898,6917.901,95.438,541.394,538.139,0.0
49457.0,STARLINK-3132,PAYLOAD,2022-11-08 07:08:32,15.08847369,0.0002414,53.2148,284.2207,32.2483,327.8656,0.00020844,3.031e-05,0.0,0 STARLINK-3132,1 49457U 21104BB  22312.29759655  .00003031  00000-0  20844-3 0  9993,2 49457  53.2148 284.2207 0002414  32.2483 327.8656 15.08847369 56067,6917.858,95.437,541.393,538.053,0.0
49457.0,STARLINK-3132,PAYLOAD,2022-11-09 02:13:08,15.08865953,0.0002424,53.2156,280.6522,34.9163,325.1987,0.00036903,5.594e-05,0.0,0 STARLINK-3132,1 49457U 21104BB  22313.09246126  .00005594  00000-0  36903-3 0  9995,2 49457  53.2156 280.6522 0002424  34.9163 325.1987 15.08865953 56181,6917.801,95.436,541.3430000000002,537.989,0.0
49457.0,STARLINK-3132,PAYLOAD,2022-11-09 06:59:17,15.08864754,0.0002359,53.2149,279.761,33.1172,326.9968,0.00028098,4.189e-05,0.0,0 STARLINK-3132,1 49457U 21104BB  22313.29117855  .00004189  00000-0  28098-3 0  9998,2 49457  53.2149 279.7610 0002359  33.1172 326.9968 15.08864754 55149,6917.805,95.436,541.302,538.038,0.0
49457.0,STARLINK-3132,PAYLOAD,2022-11-09 14:56:14,15.08839416,0.0002767,53.2151,278.2729,38.7737,321.3454,-0.00026328,-4.476e-05,0.0,0 STARLINK-3132,1 49457U 21104BB  22313.62238762 -.00004476  00000-0 -26328-3 0  9991,2 49457  53.2151 278.2729 0002767  38.7737 321.3454 15.08839416 56268,6917.882,95.438,541.661,537.8330000000002,0.0
49457.0,STARLINK-3132,PAYLOAD,2022-11-09 21:17:47,15.08807766,0.000238,53.2153,277.0838,35.2609,324.8540000000001,-0.0011120999999999,-0.00017929,0.0,0 STARLINK-3132,1 49457U 21104BB  22313.88735433 -.00017929  00000-0 -11121-2 0  9997,2 49457  53.2153 277.0838 0002380  35.2609 324.8540 15.08807766 55232,6917.979,95.44,541.49,538.197,0.0
49457.0,STARLINK-3132,PAYLOAD,2022-11-10 02:03:57,15.08807315,0.0002321,53.2155,276.1923,34.7328,325.3816,-0.00083151,-0.00013486,0.0,0 STARLINK-3132,1 49457U 21104BB  22314.08607831 -.00013486  00000-0 -83151-3 0  9997,2 49457  53.2155 276.1923 0002321  34.7328 325.3816 15.08807315 56330,6917.98,95.44,541.451,538.24,0.0
49457.0,STARLINK-3132,PAYLOAD,2022-11-10 06:50:07,15.08798654,0.0002303,53.2152,275.3002,34.8297,325.2845,-0.00033396,-5.593e-05,0.0,0 STARLINK-3132,1 49457U 21104BB  22314.28480421 -.00005593  00000-0 -33396-3 0  9999,2 49457  53.2152 275.3002 0002303  34.8297 325.2845 15.08798654 55292,6918.007,95.44,541.465,538.279,0.0
49457.0,STARLINK-3132,PAYLOAD,2022-11-10 14:47:03,15.08802632,0.000227,53.2151,273.8136,35.1806,324.9336,0.00062854,9.719e-05,0.0,0 STARLINK-3132,1 49457U 21104BB  22314.61601443  .00009719  00000-0  62854-3 0  9998,2 49457  53.2151 273.8136 0002270  35.1806 324.9336 15.08802632 56413,6917.995,95.44,541.43,538.289,0.0
49457.0,STARLINK-3132,PAYLOAD,2022-11-10 21:08:36,15.08812594,0.0002273,53.2151,272.6241,35.3989,324.7154,0.0011209,0.00017583,0.0,0 STARLINK-3132,1 49457U 21104BB  22314.88098073  .00017583  00000-0  11209-2 0  9991,2 49457  53.2151 272.6241 0002273  35.3989 324.7154 15.08812594 55383,6917.964,95.439,541.4019999999998,538.257,0.0
49457.0,STARLINK-3132,PAYLOAD,2022-11-11 03:30:09,15.08827785,0.0002287,53.215,271.4352,36.0596,324.0551,0.0013748,0.00021653,0.0,0 STARLINK-3132,1 49457U 21104BB  22315.14594334  .00021653  00000-0  13748-2 0  9995,2 49457  53.2150 271.4352 0002287  36.0596 324.0551 15.08827785 56494,6917.918000000002,95.438,541.365,538.201,0.0
49457.0,STARLINK-3132,PAYLOAD,2022-11-11 06:40:55,15.08833702,0.000232,53.2151,270.8407,36.4932,323.6218,0.0012963,0.000204,0.0,0 STARLINK-3132,1 49457U 21104BB  22315.27842362  .00020400  00000-0  12963-2 0  9993,2 49457  53.2151 270.8407 0002320  36.4932 323.6218 15.08833702 55440,6917.9,95.438,541.37,538.16,0.0
49457.0,STARLINK-3132,PAYLOAD,2022-11-11 14:37:51,15.08850706,0.00023,53.2151,269.3535,37.8331,322.2823,0.0014716,0.00023217,0.0,0 STARLINK-3132,1 49457U 21104BB  22315.60962268  .00023217  00000-0  14716-2 0  9995,2 49457  53.2151 269.3535 0002300  37.8331 322.2823 15.08850706 55496,6917.848000000001,95.437,541.304,538.122,0.0
49457.0,STARLINK-3132,PAYLOAD,2022-11-12 03:20:55,15.08869752,0.0002404,53.2155,266.9751,37.2852,322.8307,0.0011656,0.00018327,0.0,0 STARLINK-3132,1 49457U 21104BB  22316.13953454  .00018327  00000-0  11656-2 0  9997,2 49457  53.2155 266.9751 0002404  37.2852 322.8307 15.08869752 55573,6917.7890000000025,95.436,541.317,537.991,0.0
